NORAD_CAT_ID,OBJECT_NAME,OBJECT_TYPE,EPOCH,MEAN_MOTION,ECCENTRICITY,INCLINATION,RA_OF_ASC_NODE,ARG_OF_PERICENTER,MEAN_ANOMALY,BSTAR,MEAN_MOTION_DOT,MEAN_MOTION_DDOT,TLE_LINE0,TLE_LINE1,TLE_LINE2,SEMIMAJOR_AXIS,PERIOD,APOGEE,PERIGEE,DECAYED
55293.0,STARLINK-5287,PAYLOAD,2024-08-13 04:22:22,14.98297997,0.0003215,70.0,30.4566,270.6868,89.3923,-0.00052037,-6.291e-05,0.0,0 STARLINK-5287,1 55293U 23010AA  24226.18221031 -.00006291  00000-0 -52037-3 0  9994,2 55293  70.0000  30.4566 0003215 270.6868  89.3923 14.98297997 87065,6950.292,96.109,574.391,569.922,0.0
55293.0,STARLINK-5287,PAYLOAD,2024-08-13 10:46:55,14.98293657,0.0002746,70.0,29.7835,270.1656,89.9189,-0.00040856,-4.96e-05,0.0,0 STARLINK-5287,1 55293U 23010AA  24226.44925682 -.00004960  00000-0 -40856-3 0  9993,2 55293  70.0000  29.7835 0002746 270.1656  89.9189 14.98293657 87400,6950.305,96.109,574.079,570.262,0.0
55293.0,STARLINK-5287,PAYLOAD,2024-08-13 20:24:57,14.97381397,0.0002885,70.0011,28.7735,202.5435,157.5597,-0.010572,-0.00121079,0.0,0 STARLINK-5287,1 55293U 23010AA  24226.85067012 -.00121079  00000-0 -10572-1 0  9993,2 55293  70.0011  28.7735 0002885 202.5435 157.5597 14.97381397 87164,6953.128,96.168,576.999,572.987,0.0
55293.0,STARLINK-5287,PAYLOAD,2024-08-14 06:00:00,14.98305083,0.0002987,70.0022,27.7643,273.5697,84.5924,0.0045258,0.00054293,0.0,0 STARLINK-5287,1 55293U 23010AA  24227.25001157  .00054293  00000-0  45258-2 0  9997,2 55293  70.0022  27.7643 0002987 273.5697  84.5924 14.98305083 87223,6950.27,96.109,574.211,570.059,0.0
55293.0,STARLINK-5287,PAYLOAD,2024-08-14 12:25:02,14.98334921,0.0002899,69.9999,27.0875,272.0136,88.0691,9.8292e-05,1.08e-05,0.0,0 STARLINK-5287,1 55293U 23010AA  24227.51739405  .00001080  00000-0  98292-4 0  9994,2 55293  69.9999  27.0875 0002899 272.0136  88.0691 14.98334921 87264,6950.178,96.107,574.058,570.028,0.0
55293.0,STARLINK-5287,PAYLOAD,2024-08-14 14:01:10,14.98333759,0.0003065,69.9995,26.9192,273.0439,87.0369,0.00010437,1.153e-05,0.0,0 STARLINK-5287,1 55293U 23010AA  24227.58415408  .00001153  00000-0  10437-3 0  9990,2 55293  69.9995  26.9192 0003065 273.0439  87.0369 14.98333759 87576,6950.181,96.107,574.176,569.916,0.0
55293.0,STARLINK-5287,PAYLOAD,2024-08-14 20:25:43,14.98341781,0.0003036,70.0009,26.2481,269.0479,91.0332,-7.5012e-05,-9.88e-06,0.0,0 STARLINK-5287,1 55293U 23010AA  24227.85119493 -.00000988  00000-0 -75012-4 0  9993,2 55293  70.0009  26.2481 0003036 269.0479  91.0332 14.98341781 87610,6950.156,96.106,574.132,569.911,0.0
55293.0,STARLINK-5287,PAYLOAD,2024-08-15 04:26:23,14.98344863,0.0003244,70.0009,25.4068,276.5344,83.5446,1.9117e-05,1.35e-06,0.0,0 STARLINK-5287,1 55293U 23010AA  24228.18498916  .00000135  00000-0  19117-4 0  9996,2 55293  70.0009  25.4068 0003244 276.5344  83.5446 14.98344863 87668,6950.147,96.106,574.267,569.757,0.0
55293.0,STARLINK-5287,PAYLOAD,2024-08-15 17:15:27,14.98326234,0.0003007,70.0008,24.0604,275.6961,84.3855,0.00052856,6.219e-05,0.0,0 STARLINK-5287,1 55293U 23010AA  24228.71906950  .00006219  00000-0  52856-3 0  9992,2 55293  70.0008  24.0604 0003007 275.6961  84.3855 14.98326234 87441,6950.205,96.107,574.159,569.98,0.0
55293.0,STARLINK-5287,PAYLOAD,2024-08-17 04:00:00,14.9831288,0.0003074,70.0022,20.41,270.6764,335.6244,0.00096383,0.00011421,0.0,0 STARLINK-5287,1 55293U 23010AA  24230.16667824  .00011421  00000-0  96383-3 0  9992,2 55293  70.0022  20.4100 0003074 270.6764 335.6244 14.98312880 87657,6950.246,96.108,574.247,569.974,0.0
55293.0,STARLINK-5287,PAYLOAD,2024-08-17 10:00:00,14.98325823,0.0003071,70.0023,19.7798,267.3954,246.9958,0.0016338,0.00019453,0.0,0 STARLINK-5287,1 55293U 23010AA  24230.41667824  .00019453  00000-0  16338-2 0  9994,2 55293  70.0023  19.7798 0003071 267.3954 246.9958 14.98325823  5694,6950.206,96.107,574.205,569.936,0.0
55293.0,STARLINK-5287,PAYLOAD,2024-08-17 22:00:01,14.98321613,0.0003123,70.0021,18.5188,273.6283,57.0571,-3.4771e-05,-5.08e-06,0.0,0 STARLINK-5287,1 55293U 23010AA  24230.91668981 -.00000508  00000-0 -34771-4 0  9990,2 55293  70.0021  18.5188 0003123 273.6283  57.0571 14.98321613  5779,6950.219,96.108,574.254,569.913,0.0
55293.0,STARLINK-5287,PAYLOAD,2024-08-18 00:00:00,14.98336686,0.0003081,70.002,18.3088,272.6968,147.2904,-0.0030474,-0.00036273,0.0,0 STARLINK-5287,1 55293U 23010AA  24231.00001157 -.00036273  00000-0 -30474-2 0  9999,2 55293  70.0020  18.3088 0003081 272.6968 147.2904 14.98336686 87786,6950.172,96.107,574.179,569.896,0.0
55293.0,STARLINK-5287,PAYLOAD,2024-08-18 10:54:44,15.00124357,0.0011959,70.0036,17.1529,256.0239,103.9591,0.019741,0.00256138,0.0,0 STARLINK-5287,1 55293U 23010AA  24231.45467699  .00256138  00000-0  19741-1 0  9990,2 55293  70.0036  17.1529 0011959 256.0239 103.9591 15.00124357 87853,6944.65,95.992,574.82,558.209,0.0
55293.0,STARLINK-5287,PAYLOAD,2024-08-18 15:45:22,14.98319216,0.0003164,70.0011,16.6548,265.2229,94.8569,-8.5756e-06,-1.95e-06,0.0,0 STARLINK-5287,1 55293U 23010AA  24231.65651000 -.00000195  00000-0 -85756-5 0  9998,2 55293  70.0011  16.6548 0003164 265.2229  94.8569 14.98319216 87883,6950.226,96.108,574.29,569.892,0.0
55293.0,STARLINK-5287,PAYLOAD,2024-08-18 22:00:00,14.98330955,0.0003161,70.0024,15.9974,272.1744,50.8467,0.00051662,6.077e-05,0.0,0 STARLINK-5287,1 55293U 23010AA  24231.91667824  .00006077  00000-0  51662-3 0  9998,2 55293  70.0024  15.9974 0003161 272.1744  50.8467 14.98330955 87914,6950.19,96.107,574.252,569.858,0.0
55293.0,STARLINK-5287,PAYLOAD,2024-08-19 10:58:58,14.9832676,0.0002798,70.002,14.6349,257.6226,102.462,7.0059e-05,7.43e-06,0.0,0 STARLINK-5287,1 55293U 23010AA  24232.45762576  .00000743  00000-0  70059-4 0  9994,2 55293  70.0020  14.6349 0002798 257.6226 102.4620 14.98326760 88005,6950.203,96.107,574.013,570.123,0.0
55293.0,STARLINK-5287,PAYLOAD,2024-08-19 19:00:13,14.97940554,0.0001241,70.0015,13.795,243.8117,116.2914,-0.0040132,-0.00047176,0.0,0 STARLINK-5287,1 55293U 23010AA  24232.79182650 -.00047176  00000-0 -40132-2 0  9990,2 55293  70.0015  13.7950 0001241 243.8117 116.2914 14.97940554 88051,6951.397,96.132,574.125,572.4,0.0
55293.0,STARLINK-5287,PAYLOAD,2024-08-20 12:37:15,14.98305044,0.0003274,70.0009,11.9412,264.5976,95.4809,0.00012923,1.448e-05,0.0,0 STARLINK-5287,1 55293U 23010AA  24233.52587687  .00001448  00000-0  12923-3 0  9999,2 55293  70.0009  11.9412 0003274 264.5976  95.4809 14.98305044 88161,6950.27,96.109,574.411,569.86,0.0
55293.0,STARLINK-5287,PAYLOAD,2024-08-20 14:13:23,14.98305231,0.0003322,70.0009,11.773,264.4744,95.6037,0.00013917,1.567e-05,0.0,0 STARLINK-5287,1 55293U 23010AA  24233.59263874  .00001567  00000-0  13917-3 0  9991,2 55293  70.0009  11.7730 0003322 264.4744  95.6037 14.98305231 88475,6950.269,96.109,574.443,569.826,0.0
55293.0,STARLINK-5287,PAYLOAD,2024-08-21 12:39:08,14.98330305,0.0003092,70.0013,9.4159,269.166,90.9145,-0.00014004,-1.764e-05,0.0,0 STARLINK-5287,1 55293U 23010AA  24234.52718742 -.00001764  00000-0 -14004-3 0  9993,2 55293  70.0013   9.4159 0003092 269.1660  90.9145 14.98330305 88313,6950.192,96.107,574.206,569.908,0.0
55293.0,STARLINK-5287,PAYLOAD,2024-08-21 14:15:17,14.98330142,0.00031,70.0014,9.2477,269.7027,90.3777,-0.0001385,-1.745e-05,0.0,0 STARLINK-5287,1 55293U 23010AA  24234.59394747 -.00001745  00000-0 -13850-3 0  9992,2 55293  70.0014   9.2477 0003100 269.7027  90.3777 14.98330142 88626,6950.192,96.107,574.212,569.903,0.0
55293.0,STARLINK-5287,PAYLOAD,2024-08-21 19:03:40,14.98333529,0.0003091,70.0014,8.7427,269.4995,90.581,-9.4209e-05,-1.217e-05,0.0,0 STARLINK-5287,1 55293U 23010AA  24234.79422375 -.00001217  00000-0 -94209-4 0  9995,2 55293  70.0014   8.7427 0003091 269.4995  90.5810 14.98333529 88650,6950.182,96.107,574.195,569.899,0.0
